{{Infobox Planet  
| name = 2903 Zhuhai
| image = 
| caption = 
| discovery=yes | physical_characteristics = yes | bgcolour=#FFFFC0
| discovery_ref = 
| discoverer = [[紫金山天文台|紫金山天文台]]
| discovery_site = [[南京|南京]]
| discovered =  1981年10月23日
| mp_name = 2903
| alt_names = 1981 UV9
| named_after = [[珠海市|珠海市]]
| mp_category=[[小行星带|主带]]
| orbit_ref = <ref>[http://ssd.jpl.nasa.gov/sbdb.cgi?sstr=2903+Zhuhai JPL Small-Body Database 2903 Zhuhai (1981 UV9)]</ref>
| epoch = 2458000.5 （2017年9月4日 TDB）
| semimajor= 2.56126024798515[[天文單位|AU]]
| perihelion=2.712673870340563 AU
| aphelion= 2.409846625629736 AU
| eccentricity = 0.05911684393435819
| period = 1497.197145745225[[日|地球日]] （4.10[[儒略年|yr]]）
| inclination=14.34991437946472[[角度|°]]
| asc_node=232.5712695232528°
| arg_peri=244.057335938652°
| mean_anomaly=188.1656186490208°
| avg_speed=0.2404492962219822 °/d
 | dimensions= 13.581 Km
 | mass=
 | density=
 | surface_grav=
 | escape_velocity=
 | rotation= 5.263 hr
 | spectral_type= 
 | magnitude= 
 | abs_magnitude= 11.7
 | albedo= 0.276
 | single_temperature=
}}
'''小行星2903'''，又称为'''珠海星'''，是由[[紫金山天文台|紫金山天文台]]在1981年10月23日发现的[[小行星带|主带]][[小行星|小行星]]，在1990年6月15日正式以[[珠海市|珠海市]]命名。

== 参考资料 ==
{{Reflist}}

{{Minor Planet Number|(2902)[[小行星2902|小行星2902]]|(2904)[[小行星2904|小行星2904]]}}

[[Category:小行星带天体|Category:小行星带天体]]
[[Category:1981年发现的小行星|Category:1981年发现的小行星]]
[[Category:珠海|Category:珠海]]
[[Category:以地名命名的小行星|Category:以地名命名的小行星]]